{
  "type": "FeatureCollection",
  "features": [
    {
      "type": "Feature",
      "properties": {
        "norad_id": 66547,
        "name": "SHIJIAN-30C",
        "group": "last-30-days",
        "lat": -51.14451344910667,
        "lon": -100.57481032176491,
        "alt_km": 520.8749532819847,
        "timestamp": "2025-12-06T14:35:35.910469+00:00",
        "meta_object_name": "SHIJIAN-30C",
        "meta_object_id": "2025-266C",
        "meta_epoch": "2025-12-06T07:06:33.041664",
        "meta_mean_motion": 15.1555404,
        "meta_eccentricity": 0.00113883,
        "meta_inclination": 51.7992,
        "meta_ra_of_asc_node": 3.0633,
        "meta_arg_of_pericenter": 328.7106,
        "meta_mean_anomaly": 31.3191,
        "meta_ephemeris_type": 0,
        "meta_classification_type": "U",
        "meta_norad_cat_id": 66547,
        "meta_element_set_no": 999,
        "meta_rev_at_epoch": 260,
        "meta_bstar": 0.00097776552,
        "meta_mean_motion_dot": 0.00018545,
        "meta_mean_motion_ddot": 0,
        "tle_line1": "1 66547U 25266C   25340.29621576  .00018545  00000+0  97777-3 0  9993",
        "tle_line2": "2 66547  51.7992   3.0633 0011388 328.7106  31.3191 15.15554040  2602"
      },
      "geometry": {
        "type": "Point",
        "coordinates": [
          -100.57481032176491,
          -51.14451344910667
        ]
      }
    },
    {
      "type": "Feature",
      "properties": {
        "norad_id": 66548,
        "name": "CZ-2C R/B",
        "group": "last-30-days",
        "lat": 51.632079610209324,
        "lon": 80.74122518518939,
        "alt_km": 446.9110621861064,
        "timestamp": "2025-12-06T14:35:35.910480+00:00",
        "meta_object_name": "CZ-2C R/B",
        "meta_object_id": "2025-266D",
        "meta_epoch": "2025-12-06T07:57:19.878912",
        "meta_mean_motion": 15.29976619,
        "meta_eccentricity": 0.00843857,
        "meta_inclination": 52.0563,
        "meta_ra_of_asc_node": 1.8052,
        "meta_arg_of_pericenter": 151.2357,
        "meta_mean_anomaly": 209.332,
        "meta_ephemeris_type": 0,
        "meta_classification_type": "U",
        "meta_norad_cat_id": 66548,
        "meta_element_set_no": 999,
        "meta_rev_at_epoch": 263,
        "meta_bstar": 0.0005900813,
        "meta_mean_motion_dot": 0.0001902,
        "meta_mean_motion_ddot": 0,
        "tle_line1": "1 66548U 25266D   25340.33148008  .00019020  00000+0  59008-3 0  9997",
        "tle_line2": "2 66548  52.0563   1.8052 0084385 151.2357 209.3320 15.29976619  2635"
      },
      "geometry": {
        "type": "Point",
        "coordinates": [
          80.74122518518939,
          51.632079610209324
        ]
      }
    },
    {
      "type": "Feature",
      "properties": {
        "norad_id": 66549,
        "name": "SHIJIAN-28",
        "group": "last-30-days",
        "lat": 10.084326408063113,
        "lon": -43.326066887393424,
        "alt_km": 19133.387908848887,
        "timestamp": "2025-12-06T14:35:35.910491+00:00",
        "meta_object_name": "SHIJIAN-28",
        "meta_object_id": "2025-277A",
        "meta_epoch": "2025-11-30T18:06:43.124256",
        "meta_mean_motion": 2.28019775,
        "meta_eccentricity": 0.7300519,
        "meta_inclination": 14.4344,
        "meta_ra_of_asc_node": 275.4056,
        "meta_arg_of_pericenter": 179.5026,
        "meta_mean_anomaly": 182.358,
        "meta_ephemeris_type": 0,
        "meta_classification_type": "U",
        "meta_norad_cat_id": 66549,
        "meta_element_set_no": 999,
        "meta_rev_at_epoch": 4,
        "meta_bstar": 0.00062085,
        "meta_mean_motion_dot": 6.315e-05,
        "meta_mean_motion_ddot": 0,
        "tle_line1": "1 66549U 25277A   25334.75466579  .00006315  00000+0  62085-3 0  9997",
        "tle_line2": "2 66549  14.4344 275.4056 7300519 179.5026 182.3580  2.28019775    48"
      },
      "geometry": {
        "type": "Point",
        "coordinates": [
          -43.326066887393424,
          10.084326408063113
        ]
      }
    },
    {
      "type": "Feature",
      "properties": {
        "norad_id": 66550,
        "name": "CZ-7A R/B",
        "group": "last-30-days",
        "lat": 7.7598050576535735,
        "lon": -55.14361172202902,
        "alt_km": 23316.20422089966,
        "timestamp": "2025-12-06T14:35:35.910505+00:00",
        "meta_object_name": "CZ-7A R/B",
        "meta_object_id": "2025-277B",
        "meta_epoch": "2025-12-05T16:08:57.677856",
        "meta_mean_motion": 2.46607958,
        "meta_eccentricity": 0.71883751,
        "meta_inclination": 14.4096,
        "meta_ra_of_asc_node": 273.3314,
        "meta_arg_of_pericenter": 182.4898,
        "meta_mean_anomaly": 169.6754,
        "meta_ephemeris_type": 0,
        "meta_classification_type": "U",
        "meta_norad_cat_id": 66550,
        "meta_element_set_no": 999,
        "meta_rev_at_epoch": 16,
        "meta_bstar": 0.0024987939,
        "meta_mean_motion_dot": 0.01162886,
        "meta_mean_motion_ddot": 1.281739e-06,
        "tle_line1": "1 66550U 25277B   25339.67288979  .01162886  12817-5  24988-2 0  9992",
        "tle_line2": "2 66550  14.4096 273.3314 7188375 182.4898 169.6754  2.46607958   162"
      },
      "geometry": {
        "type": "Point",
        "coordinates": [
          -55.14361172202902,
          7.7598050576535735
        ]
      }
    },
    {
      "type": "Feature",
      "properties": {
        "norad_id": 66551,
        "name": "UNKNOWN",
        "group": "last-30-days",
        "lat": -6.8727665993654075,
        "lon": 42.25265093222879,
        "alt_km": 342.3553612650421,
        "timestamp": "2025-12-06T14:35:35.910518+00:00",
        "meta_object_name": "UNKNOWN",
        "meta_object_id": "2025-271AE",
        "meta_epoch": "2025-12-02T16:00:03.000096",
        "meta_mean_motion": 15.87051116,
        "meta_eccentricity": 7.17e-05,
        "meta_inclination": 53.1571,
        "meta_ra_of_asc_node": 236.7807,
        "meta_arg_of_pericenter": 110.7411,
        "meta_mean_anomaly": 313.9012,
        "meta_ephemeris_type": 0,
        "meta_classification_type": "U",
        "meta_norad_cat_id": 66551,
        "meta_element_set_no": 999,
        "meta_rev_at_epoch": 262,
        "meta_bstar": -0.0074303,
        "meta_mean_motion_dot": -0.01709685,
        "meta_mean_motion_ddot": 0,
        "tle_line1": "1 66551U 25271AE  25336.66670139 -.01709685  00000+0 -74303-2 0  9993",
        "tle_line2": "2 66551  53.1571 236.7807 0000717 110.7411 313.9012 15.87051116  2624"
      },
      "geometry": {
        "type": "Point",
        "coordinates": [
          42.25265093222879,
          -6.8727665993654075
        ]
      }
    },
    {
      "type": "Feature",
      "properties": {
        "norad_id": 66554,
        "name": "GLOBAL-33",
        "group": "last-30-days",
        "lat": 31.391425935205177,
        "lon": 135.05017388482477,
        "alt_km": 463.9173671919216,
        "timestamp": "2025-12-06T14:35:35.910531+00:00",
        "meta_object_name": "GLOBAL-33",
        "meta_object_id": "2025-267A",
        "meta_epoch": "2025-12-06T08:06:37.660896",
        "meta_mean_motion": 15.31413788,
        "meta_eccentricity": 0.00050375,
        "meta_inclination": 42.0196,
        "meta_ra_of_asc_node": 93.9453,
        "meta_arg_of_pericenter": 6.8015,
        "meta_mean_anomaly": 353.289,
        "meta_ephemeris_type": 0,
        "meta_classification_type": "U",
        "meta_norad_cat_id": 66554,
        "meta_element_set_no": 999,
        "meta_rev_at_epoch": 242,
        "meta_bstar": 0.00071627239,
        "meta_mean_motion_dot": 0.00022021,
        "meta_mean_motion_ddot": 0,
        "tle_line1": "1 66554U 25267A   25340.33793589  .00022021  00000+0  71627-3 0  9991",
        "tle_line2": "2 66554  42.0196  93.9453 0005037   6.8015 353.2890 15.31413788  2427"
      },
      "geometry": {
        "type": "Point",
        "coordinates": [
          135.05017388482477,
          31.391425935205177
        ]
      }
    },
    {
      "type": "Feature",
      "properties": {
        "norad_id": 66555,
        "name": "ELECTRON KICK STAGE R/B",
        "group": "last-30-days",
        "lat": 41.91420881634273,
        "lon": -173.31939567420483,
        "alt_km": 461.5865940742333,
        "timestamp": "2025-12-06T14:35:35.910541+00:00",
        "meta_object_name": "ELECTRON KICK STAGE R/B",
        "meta_object_id": "2025-267B",
        "meta_epoch": "2025-12-06T07:55:54.267744",
        "meta_mean_motion": 15.32356018,
        "meta_eccentricity": 0.00070291,
        "meta_inclination": 42.0182,
        "meta_ra_of_asc_node": 93.8895,
        "meta_arg_of_pericenter": 5.8209,
        "meta_mean_anomaly": 354.2709,
        "meta_ephemeris_type": 0,
        "meta_classification_type": "U",
        "meta_norad_cat_id": 66555,
        "meta_element_set_no": 999,
        "meta_rev_at_epoch": 242,
        "meta_bstar": 0.0011904437,
        "meta_mean_motion_dot": 0.00037968,
        "meta_mean_motion_ddot": 0,
        "tle_line1": "1 66555U 25267B   25340.33048921  .00037968  00000+0  11904-2 0  9992",
        "tle_line2": "2 66555  42.0182  93.8895 0007029   5.8209 354.2709 15.32356018  2422"
      },
      "geometry": {
        "type": "Point",
        "coordinates": [
          -173.31939567420483,
          41.91420881634273
        ]
      }
    }
  ]
}